{"fetched_at":"2026-03-29T02:12:04Z","count":15717,"tles":[{"name":"STARLINK-34182","line1":"1 64013U 25101V   26087.46730423  .00022196  00000+0  81342-3 0  9995","line2":"2 64013  43.0003 248.7468 0001012 261.9350  98.1386 15.27590757 49966","category":"Starlink"}]}